1 21574U 91050A   26009.05598777  .00000337  00000-0  12239-3 0  9992
2 21574  98.7898  25.7932 0032314  21.0296 339.2211 14.39391653807157